     2              NAVIGATION DATA                         RINEX VERSION / TYPE
CCRINEXN V1.6.0 UX  CDDIS               29-JUN-20 19:31     PGM / RUN BY / DATE 
IGS BROADCAST EPHEMERIS FILE                                COMMENT             
    0.4657D-08  0.1490D-07 -0.5960D-07 -0.1192D-06          ION ALPHA           
    0.8192D+05  0.9830D+05 -0.6554D+05 -0.5243D+06          ION BETA            
   -0.465661287308D-08-0.142108547152D-13   147456     2112 DELTA-UTC: A0,A1,T,W
    18                                                      LEAP SECONDS        
                                                            END OF HEADER       
24 20  6 28 22  0  0.0-0.149598345161D-04-0.568434188608D-12 0.000000000000D+00
    0.680000000000D+02 0.676875000000D+02 0.487198859034D-08-0.213382683573D+01
    0.353530049324D-05 0.973972666543D-02 0.976212322712D-05 0.515365171623D+04
    0.792000000000D+05 0.391155481338D-07-0.761098108094D+00-0.126659870148D-06
    0.936277081161D+00 0.177906250000D+03 0.666535942183D+00-0.812319544963D-08
    0.255724941223D-09 0.100000000000D+01 0.211200000000D+04 0.000000000000D+00
    0.280000000000D+01 0.000000000000D+00 0.279396772385D-08 0.680000000000D+02
    0.724200000000D+05 0.000000000000D+00 0.000000000000D+00 0.000000000000D+00
26 20  6 28 22  0  0.0 0.233888160437D-03 0.693489710102D-11 0.000000000000D+00
    0.280000000000D+02 0.179375000000D+02 0.500020827874D-08 0.163284300839D+01
    0.923871994019D-06 0.475792295765D-02 0.430457293987D-05 0.515363841820D+04
    0.792000000000D+05-0.130385160446D-07 0.312589980262D+00 0.763684511185D-07
    0.946533433043D+00 0.288437500000D+03 0.221429915193D+00-0.851928343378D-08
   -0.864321716755D-10 0.100000000000D+01 0.211200000000D+04 0.000000000000D+00
    0.200000000000D+01 0.000000000000D+00 0.698491930962D-08 0.280000000000D+02
    0.720780000000D+05 0.400000000000D+01 0.000000000000D+00 0.000000000000D+00
27 20  6 28 22  0  0.0-0.332516152412D-03-0.977706804406D-11 0.000000000000D+00
    0.770000000000D+02-0.244687500000D+02 0.407838416679D-08-0.257681768360D+00
   -0.115483999252D-05 0.831394735724D-02 0.837631523609D-05 0.515367105484D+04
    0.792000000000D+05 0.614672899246D-07 0.139376224194D+01 0.100582838059D-06
    0.977791416389D+00 0.230093750000D+03 0.577058089540D+00-0.805104964425D-08
   -0.817891211309D-10 0.100000000000D+01 0.211200000000D+04 0.000000000000D+00
    0.200000000000D+01 0.000000000000D+00 0.186264514923D-08 0.770000000000D+02
    0.720180000000D+05 0.400000000000D+01 0.000000000000D+00 0.000000000000D+00
28 20  6 28 22  0  0.0 0.704473815858D-03-0.341060513165D-11 0.000000000000D+00
    0.160000000000D+02 0.275000000000D+01 0.443232748137D-08 0.510678651290D+00
    0.558793544769D-07 0.183826396242D-01 0.542774796486D-05 0.515366162109D+04
    0.792000000000D+05-0.208616256714D-06 0.440352260062D+00-0.165775418282D-06
    0.977349211363D+00 0.285937500000D+03-0.140421797639D+01-0.851785480284D-08
   -0.206437170365D-09 0.100000000000D+01 0.211200000000D+04 0.000000000000D+00
    0.200000000000D+01 0.000000000000D+00-0.111758708954D-07 0.160000000000D+02
    0.720180000000D+05 0.400000000000D+01 0.000000000000D+00 0.000000000000D+00
29 20  6 28 22  0  0.0-0.138451345265D-03-0.864019966684D-11 0.000000000000D+00
    0.510000000000D+02-0.394062500000D+02 0.383123101472D-08 0.102237128621D+00
   -0.217184424400D-05 0.158353720326D-02 0.950507819653D-05 0.515356816292D+04
    0.792000000000D+05-0.745058059692D-08 0.146420145780D+01-0.502914190292D-07
    0.985356802146D+00 0.206343750000D+03 0.199706667348D+01-0.782818321811D-08
   -0.889322758148D-10 0.100000000000D+01 0.211200000000D+04 0.000000000000D+00
    0.200000000000D+01 0.000000000000D+00-0.977888703346D-08 0.510000000000D+02
    0.748320000000D+05 0.400000000000D+01 0.000000000000D+00 0.000000000000D+00
30 20  6 28 22  0  0.0-0.251325313002D-03-0.784439180279D-11 0.000000000000D+00
    0.690000000000D+02 0.801562500000D+02 0.499413659726D-08 0.311384006920D+01
    0.405684113502D-05 0.471488374751D-02 0.862404704094D-05 0.515363066483D+04
    0.792000000000D+05 0.149011611938D-07-0.666237103130D+00-0.149011611938D-07
    0.938359085691D+00 0.201375000000D+03-0.283839874453D+01-0.830463163553D-08
    0.182507602174D-09 0.100000000000D+01 0.211200000000D+04 0.000000000000D+00
    0.200000000000D+01 0.000000000000D+00 0.372529029846D-08 0.690000000000D+02
    0.720180000000D+05 0.400000000000D+01 0.000000000000D+00 0.000000000000D+00
31 20  6 28 22  0  0.0-0.521703623235D-04-0.250111042988D-11 0.000000000000D+00
    0.820000000000D+02 0.680625000000D+02 0.450947355196D-08 0.282529613484D+01
    0.344589352608D-05 0.953949987888D-02 0.895932316780D-05 0.515360435295D+04
    0.792000000000D+05-0.135973095894D-06-0.672739632089D+00-0.465661287308D-07
    0.957470820103D+00 0.207062500000D+03 0.135809474701D+00-0.797676083553D-08
    0.115361948145D-09 0.100000000000D+01 0.211200000000D+04 0.000000000000D+00
    0.200000000000D+01 0.000000000000D+00-0.130385160446D-07 0.820000000000D+02
    0.720550000000D+05 0.400000000000D+01 0.000000000000D+00 0.000000000000D+00
32 20  6 28 22  0  0.0 0.308200716972D-03 0.659383658785D-11 0.000000000000D+00
    0.480000000000D+02-0.428437500000D+02 0.468055194602D-08 0.443122920111D+00
   -0.212341547012D-05 0.405694392975D-02 0.988319516182D-05 0.515372900009D+04
    0.792000000000D+05-0.335276126862D-07-0.175401949724D+01 0.875443220139D-07
    0.956506078295D+00 0.187375000000D+03-0.242938958770D+01-0.811033817882D-08
   -0.319656162651D-09 0.100000000000D+01 0.211200000000D+04 0.000000000000D+00
    0.200000000000D+01 0.000000000000D+00 0.465661287308D-09 0.480000000000D+02
    0.720000000000D+05 0.000000000000D+00 0.000000000000D+00 0.000000000000D+00
 6 20  6 28 23 59 44.0-0.295722391456D-03-0.557065504836D-11 0.000000000000D+00
    0.300000000000D+02 0.216875000000D+02 0.418803159118D-08-0.113378761574D+01
    0.976026058197D-06 0.183281570207D-02 0.851042568684D-05 0.515356781960D+04
    0.863840000000D+05-0.372529029846D-08 0.244147897886D+01 0.447034835815D-07
    0.980257252586D+00 0.230187500000D+03-0.105855534775D+01-0.796568894578D-08
    0.453233164695D-09 0.100000000000D+01 0.211200000000D+04 0.000000000000D+00
    0.200000000000D+01 0.000000000000D+00 0.419095158577D-08 0.300000000000D+02
    0.826080000000D+05 0.400000000000D+01 0.000000000000D+00 0.000000000000D+00
 8 20  6 28 23 59 44.0-0.391751527786D-04-0.136424205266D-11 0.000000000000D+00
    0.170000000000D+02-0.379062500000D+02 0.417481675502D-08 0.944436945624D+00
   -0.193901360035D-05 0.534742278978D-02 0.831112265587D-05 0.515368845177D+04
    0.863840000000D+05 0.614672899246D-07 0.137914950727D+01 0.109896063805D-06
    0.969357149456D+00 0.224875000000D+03-0.595113363032D-01-0.800283335013D-08
   -0.130362572982D-09 0.100000000000D+01 0.211200000000D+04 0.000000000000D+00
    0.200000000000D+01 0.000000000000D+00 0.512227416039D-08 0.170000000000D+02
    0.792180000000D+05 0.400000000000D+01 0.000000000000D+00 0.000000000000D+00
11 20  6 28 23 59 44.0-0.235692132264D-03 0.106865627458D-10 0.000000000000D+00
    0.220000000000D+02 0.356250000000D+01 0.538665294715D-08-0.184739500545D+01
    0.553205609322D-06 0.160323431483D-01 0.893510878086D-05 0.515372321320D+04
    0.863840000000D+05-0.132247805595D-06 0.197301158088D+01 0.346451997757D-06
    0.912894762645D+00 0.184625000000D+03 0.199918663049D+01-0.849428239239D-08
    0.207865801302D-09 0.100000000000D+01 0.211200000000D+04 0.000000000000D+00
    0.200000000000D+01 0.000000000000D+00-0.125728547573D-07 0.220000000000D+02
    0.819060000000D+05 0.400000000000D+01 0.000000000000D+00 0.000000000000D+00
14 20  6 28 23 59 44.0-0.249780714512D-05 0.272848410532D-11 0.000000000000D+00
    0.160000000000D+02-0.340625000000D+02 0.461197791069D-08 0.598067531525D+00
   -0.162981450558D-05 0.115353745641D-01 0.109281390905D-04 0.515366386604D+04
    0.863840000000D+05-0.176951289177D-06-0.166641307670D+01-0.745058059692D-08
    0.960093801498D+00 0.173312500000D+03-0.191041343184D+01-0.820319900896D-08
   -0.382515935593D-09 0.100000000000D+01 0.211200000000D+04 0.000000000000D+00
    0.200000000000D+01 0.000000000000D+00-0.977888703346D-08 0.160000000000D+02
    0.854700000000D+05 0.000000000000D+00 0.000000000000D+00 0.000000000000D+00
17 20  6 28 23 59 44.0 0.287959817797D-03 0.591171556152D-11 0.000000000000D+00
    0.900000000000D+01-0.212812500000D+02 0.394016412365D-08 0.729201932587D+00
   -0.122562050819D-05 0.132223820547D-01 0.896118581295D-05 0.515372093010D+04
    0.863840000000D+05-0.169500708580D-06 0.145232817329D+01-0.484287738800D-07
    0.983677291730D+00 0.218093750000D+03-0.164119380121D+01-0.807355058150D-08
   -0.140362989539D-09 0.100000000000D+01 0.211200000000D+04 0.000000000000D+00
    0.200000000000D+01 0.000000000000D+00-0.107102096081D-07 0.900000000000D+01
    0.792180000000D+05 0.400000000000D+01 0.000000000000D+00 0.000000000000D+00
20 20  6 28 23 59 44.0 0.527414027601D-03-0.113686837722D-12 0.000000000000D+00
    0.000000000000D+00-0.186875000000D+02 0.560559063821D-08-0.186184043349D+01
   -0.949949026108D-06 0.524697848596D-02 0.525638461113D-05 0.515364842987D+04
    0.863840000000D+05-0.135973095894D-06-0.292844847672D+01-0.782310962677D-07
    0.934617582002D+00 0.266843750000D+03 0.267232998847D+01-0.871000566384D-08
    0.156077929844D-09 0.100000000000D+01 0.211200000000D+04 0.000000000000D+00
    0.200000000000D+01 0.000000000000D+00-0.884756445885D-08 0.000000000000D+00
    0.859860000000D+05 0.400000000000D+01 0.000000000000D+00 0.000000000000D+00
